{"type": "FeatureCollection", "features": [ {"type": "Feature", "properties": {"norad_id": 40697, "name": "SENTINEL-2A", "group": "resource", "lat": 26.101997759204025, "lon": 54.2541860844729, "alt_km": 787.66247401892, "timestamp": "2025-12-11T22:43:46.928739+00:00", "meta": {"OBJECT_NAME": "SENTINEL-2A", "OBJECT_ID": "2015-028A", "EPOCH": "2025-12-11T14:12:53.958816", "MEAN_MOTION": 14.30813456, "ECCENTRICITY": 0.00011011, "INCLINATION": 98.5686, "RA_OF_ASC_NODE": 58.1408, "ARG_OF_PERICENTER": 87.3128, "MEAN_ANOMALY": 272.818, "EPHEMERIS_TYPE": 0, "CLASSIFICATION_TYPE": "U", "NORAD_CAT_ID": 40697, "ELEMENT_SET_NO": 999, "REV_AT_EPOCH": 54690, "BSTAR": 0.00024501262, "MEAN_MOTION_DOT": 5.99e-06, "MEAN_MOTION_DDOT": 0}, "tle": {"line1": "1 40697U 15028A   25345.59229119  .00000599  00000+0  24501-3 0  9996", "line2": "2 40697  98.5686  58.1408 0001101  87.3128 272.8180 14.30813456546905"}}, "geometry": {"type": "Point", "coordinates": [54.2541860844729, 26.101997759204025]}}, {"type": "Feature", "properties": {"norad_id": 40701, "name": "GAOFEN-8", "group": "resource", "lat": 52.85137826449461, "lon": -5.675744540862548, "alt_km": 437.87099072424826, "timestamp": "2025-12-11T22:43:46.928750+00:00", "meta": {"OBJECT_NAME": "GAOFEN-8", "OBJECT_ID": "2015-030A", "EPOCH": "2025-12-11T14:22:39.601344", "MEAN_MOTION": 15.38499279, "ECCENTRICITY": 0.0011627, "INCLINATION": 97.6912, "RA_OF_ASC_NODE": 163.6841, "ARG_OF_PERICENTER": 141.902, "MEAN_ANOMALY": 218.3048, "EPHEMERIS_TYPE": 0, "CLASSIFICATION_TYPE": "U", "NORAD_CAT_ID": 40701, "ELEMENT_SET_NO": 999, "REV_AT_EPOCH": 58253, "BSTAR": 0.0010077897, "MEAN_MOTION_DOT": 0.0003843, "MEAN_MOTION_DDOT": 0}, "tle": {"line1": "1 40701U 15030A   25345.59906946  .00038430  00000+0  10078-2 0  9993", "line2": "2 40701  97.6912 163.6841 0011627 141.9020 218.3048 15.38499279582537"}}, "geometry": {"type": "Point", "coordinates": [-5.675744540862548, 52.85137826449461]}}, {"type": "Feature", "properties": {"norad_id": 40718, "name": "CARBONITE 1 (CBNT-1)", "group": "resource", "lat": -36.570852267786016, "lon": -18.689219515473155, "alt_km": 618.6151967697087, "timestamp": "2025-12-11T22:43:46.928760+00:00", "meta": {"OBJECT_NAME": "CARBONITE 1 (CBNT-1)", "OBJECT_ID": "2015-032D", "EPOCH": "2025-12-11T13:39:24.686208", "MEAN_MOTION": 14.82735488, "ECCENTRICITY": 0.0014306, "INCLINATION": 97.6405, "RA_OF_ASC_NODE": 166.665, "ARG_OF_PERICENTER": 185.6306, "MEAN_ANOMALY": 174.4749, "EPHEMERIS_TYPE": 0, "CLASSIFICATION_TYPE": "U", "NORAD_CAT_ID": 40718, "ELEMENT_SET_NO": 999, "REV_AT_EPOCH": 56153, "BSTAR": 0.00050893967, "MEAN_MOTION_DOT": 4.067e-05, "MEAN_MOTION_DDOT": 0}, "tle": {"line1": "1 40718U 15032D   25345.56903572  .00004067  00000+0  50894-3 0  9992", "line2": "2 40718  97.6405 166.6650 0014306 185.6306 174.4749 14.82735488561532"}}, "geometry": {"type": "Point", "coordinates": [-18.689219515473155, -36.570852267786016]}}, {"type": "Feature", "properties": {"norad_id": 40878, "name": "YAOGAN-27", "group": "resource", "lat": 29.395597190427225, "lon": -30.161022548987148, "alt_km": 1199.252011395658, "timestamp": "2025-12-11T22:43:46.928770+00:00", "meta": {"OBJECT_NAME": "YAOGAN-27", "OBJECT_ID": "2015-040A", "EPOCH": "2025-12-11T15:16:48.759744", "MEAN_MOTION": 13.16061575, "ECCENTRICITY": 0.00076365, "INCLINATION": 100.1014, "RA_OF_ASC_NODE": 335.3062, "ARG_OF_PERICENTER": 289.7335, "MEAN_ANOMALY": 70.2954, "EPHEMERIS_TYPE": 0, "CLASSIFICATION_TYPE": "U", "NORAD_CAT_ID": 40878, "ELEMENT_SET_NO": 999, "REV_AT_EPOCH": 49299, "BSTAR": 0.0010752849, "MEAN_MOTION_DOT": 3.66e-06, "MEAN_MOTION_DDOT": 0}, "tle": {"line1": "1 40878U 15040A   25345.63667546  .00000366  00000+0  10753-2 0  9991", "line2": "2 40878 100.1014 335.3062 0007636 289.7335  70.2954 13.16061575492992"}}, "geometry": {"type": "Point", "coordinates": [-30.161022548987148, 29.395597190427225]}}, {"type": "Feature", "properties": {"norad_id": 40894, "name": "GAOFEN-9 01", "group": "resource", "lat": 40.646395355283694, "lon": -148.43319367764892, "alt_km": 622.6024601407071, "timestamp": "2025-12-11T22:43:46.928780+00:00", "meta": {"OBJECT_NAME": "GAOFEN-9 01", "OBJECT_ID": "2015-047A", "EPOCH": "2025-12-11T14:00:29.050848", "MEAN_MOTION": 14.8242323, "ECCENTRICITY": 0.00284706, "INCLINATION": 97.6546, "RA_OF_ASC_NODE": 24.5889, "ARG_OF_PERICENTER": 37.9872, "MEAN_ANOMALY": 322.3343, "EPHEMERIS_TYPE": 0, "CLASSIFICATION_TYPE": "U", "NORAD_CAT_ID": 40894, "ELEMENT_SET_NO": 999, "REV_AT_EPOCH": 55239, "BSTAR": 0.00048670353, "MEAN_MOTION_DOT": 3.878e-05, "MEAN_MOTION_DDOT": 0}, "tle": {"line1": "1 40894U 15047A   25345.58366957  .00003878  00000+0  48670-3 0  9993", "line2": "2 40894  97.6546  24.5889 0028470  37.9872 322.3343 14.82423230552390"}}, "geometry": {"type": "Point", "coordinates": [-148.43319367764892, 40.646395355283694]}}, {"type": "Feature", "properties": {"norad_id": 41026, "name": "YAOGAN-28", "group": "resource", "lat": 9.278924006187163, "lon": -55.04161254833746, "alt_km": 488.29799308973725, "timestamp": "2025-12-11T22:43:46.928790+00:00", "meta": {"OBJECT_NAME": "YAOGAN-28", "OBJECT_ID": "2015-064A", "EPOCH": "2025-12-11T15:40:58.641600", "MEAN_MOTION": 15.24324206, "ECCENTRICITY": 0.00123595, "INCLINATION": 97.2805, "RA_OF_ASC_NODE": 123.4763, "ARG_OF_PERICENTER": 129.4381, "MEAN_ANOMALY": 230.7953, "EPHEMERIS_TYPE": 0, "CLASSIFICATION_TYPE": "U", "NORAD_CAT_ID": 41026, "ELEMENT_SET_NO": 999, "REV_AT_EPOCH": 56208, "BSTAR": 0.00053221842, "MEAN_MOTION_DOT": 0.00012984, "MEAN_MOTION_DDOT": 0}, "tle": {"line1": "1 41026U 15064A   25345.65345650  .00012984  00000+0  53222-3 0  9992", "line2": "2 41026  97.2805 123.4763 0012359 129.4381 230.7953 15.24324206562089"}}, "geometry": {"type": "Point", "coordinates": [-55.04161254833746, 9.278924006187163]}}, {"type": "Feature", "properties": {"norad_id": 41038, "name": "YAOGAN-29", "group": "resource", "lat": 24.612038624792525, "lon": 5.41167809106971, "alt_km": 619.4828571165099, "timestamp": "2025-12-11T22:43:46.928800+00:00", "meta": {"OBJECT_NAME": "YAOGAN-29", "OBJECT_ID": "2015-069A", "EPOCH": "2025-12-11T14:31:14.154816", "MEAN_MOTION": 14.82878667, "ECCENTRICITY": 2.972e-05, "INCLINATION": 98.022, "RA_OF_ASC_NODE": 8.7726, "ARG_OF_PERICENTER": 334.709, "MEAN_ANOMALY": 25.4109, "EPHEMERIS_TYPE": 0, "CLASSIFICATION_TYPE": "U", "NORAD_CAT_ID": 41038, "ELEMENT_SET_NO": 999, "REV_AT_EPOCH": 54282, "BSTAR": 5.0054982e-05, "MEAN_MOTION_DOT": 3.51e-06, "MEAN_MOTION_DDOT": 0}, "tle": {"line1": "1 41038U 15069A   25345.60502494  .00000351  00000+0  50055-4 0  9993", "line2": "2 41038  98.0220   8.7726 0000297 334.7090  25.4109 14.82878667542822"}}, "geometry": {"type": "Point", "coordinates": [5.41167809106971, 24.612038624792525]}}, {"type": "Feature", "properties": {"norad_id": 41167, "name": "KENT RIDGE 1", "group": "resource", "lat": 8.866177364748028, "lon": 1.3399964014218462, "alt_km": 491.59217878267464, "timestamp": "2025-12-11T22:43:46.928810+00:00", "meta": {"OBJECT_NAME": "KENT RIDGE 1", "OBJECT_ID": "2015-077B", "EPOCH": "2025-12-10T22:30:20.164032", "MEAN_MOTION": 15.21613004, "ECCENTRICITY": 0.0008534, "INCLINATION": 14.9787, "RA_OF_ASC_NODE": 224.5126, "ARG_OF_PERICENTER": 105.1226, "MEAN_ANOMALY": 255.004, "EPHEMERIS_TYPE": 0, "CLASSIFICATION_TYPE": "U", "NORAD_CAT_ID": 41167, "ELEMENT_SET_NO": 999, "REV_AT_EPOCH": 55236, "BSTAR": 0.000254, "MEAN_MOTION_DOT": 6.673e-05, "MEAN_MOTION_DDOT": 0}, "tle": {"line1": "1 41167U 15077B   25344.93773338  .00006673  00000+0  25400-3 0  9995", "line2": "2 41167  14.9787 224.5126 0008534 105.1226 255.0040 15.21613004552366"}}, "geometry": {"type": "Point", "coordinates": [1.3399964014218462, 8.866177364748028]}}, {"type": "Feature", "properties": {"norad_id": 41194, "name": "GAOFEN-4", "group": "resource", "lat": 0.1640544334994242, "lon": 167.5235765115966, "alt_km": 35772.74163263472, "timestamp": "2025-12-11T22:43:46.928825+00:00", "meta": {"OBJECT_NAME": "GAOFEN-4", "OBJECT_ID": "2015-083A", "EPOCH": "2025-12-11T15:47:15.837216", "MEAN_MOTION": 1.00269894, "ECCENTRICITY": 0.00035179, "INCLINATION": 0.1681, "RA_OF_ASC_NODE": 80.9311, "ARG_OF_PERICENTER": 106.4453, "MEAN_ANOMALY": 235.7529, "EPHEMERIS_TYPE": 0, "CLASSIFICATION_TYPE": "U", "NORAD_CAT_ID": 41194, "ELEMENT_SET_NO": 999, "REV_AT_EPOCH": 3664, "BSTAR": 0, "MEAN_MOTION_DOT": -3.27e-06, "MEAN_MOTION_DDOT": 0}, "tle": {"line1": "1 41194U 15083A   25345.65782219 -.00000327  00000+0  00000+0 0  9996", "line2": "2 41194   0.1681  80.9311 0003517 106.4453 235.7529  1.00269894 36649"}}, "geometry": {"type": "Point", "coordinates": [167.5235765115966, 0.1640544334994242]}}, {"type": "Feature", "properties": {"norad_id": 41240, "name": "JASON-3", "group": "resource", "lat": -50.38799161739986, "lon": 11.989327519888088, "alt_km": 1312.3384379314348, "timestamp": "2025-12-11T22:43:46.928837+00:00", "meta": {"OBJECT_NAME": "JASON-3", "OBJECT_ID": "2016-002A", "EPOCH": "2025-12-11T14:02:38.208480", "MEAN_MOTION": 12.87626474, "ECCENTRICITY": 0.00071495, "INCLINATION": 66.0389, "RA_OF_ASC_NODE": 160.2516, "ARG_OF_PERICENTER": 270.7343, "MEAN_ANOMALY": 89.2857, "EPHEMERIS_TYPE": 0, "CLASSIFICATION_TYPE": "U", "NORAD_CAT_ID": 41240, "ELEMENT_SET_NO": 999, "REV_AT_EPOCH": 46309, "BSTAR": 9.5037222e-05, "MEAN_MOTION_DOT": -3.8e-07, "MEAN_MOTION_DDOT": 0}, "tle": {"line1": "1 41240U 16002A   25345.58516445 -.00000038  00000+0  95037-4 0  9996", "line2": "2 41240  66.0389 160.2516 0007149 270.7343  89.2857 12.87626474463091"}}, "geometry": {"type": "Point", "coordinates": [11.989327519888088, -50.38799161739986]}}]}